43570,IRIDIUM 166,2018,100.4,860.0,+,86.39,Active,1,LEO,USA,USA,Commercial/Government,Communications,Falcon,1 43570U 18061B   25088.38118497  .00000047  00000+0  97447-5 0  9995,2 43570  86.3943 242.5631 0001763  96.6410 263.4986 14.34215959349647,14.34215959,0.0001763,LEO
43571,IRIDIUM 158,2018,100.4,860.0,+,86.39,Active,1,LEO,USA,USA,Commercial/Government,Communications,Falcon,1 43571U 18061C   25088.34947365 -.00000161  00000+0 -64416-4 0  9994,2 43571  86.3947 242.5864 0001935  89.5966 270.5452 14.34216215349607,14.34216215,0.0001935,LEO
43572,IRIDIUM 165,2018,100.4,860.0,+,86.39,Active,1,LEO,USA,USA,Commercial/Government,Communications,Falcon,1 43572U 18061D   25088.37483723 -.00000179  00000+0 -70845-4 0  9993,2 43572  86.3947 242.6136 0001881 100.9174 259.2233 14.34213094349636,14.34213094,0.0001881,LEO
43573,IRIDIUM 155,2018,100.4,860.0,+,86.39,Active,1,LEO,USA,USA,Commercial/Government,Communications,Falcon,1 43573U 18061E   25088.40655588  .00000060  00000+0  14384-4 0  9991,2 43573  86.3941 242.4912 0001921  86.9932 273.1484 14.34216760349604,14.3421676,0.0001921,LEO
43574,IRIDIUM 154,2018,100.4,860.0,+,86.39,Active,1,LEO,USA,USA,Commercial/Government,Communications,Falcon,1 43574U 18061F   25088.38752889  .00000186  00000+0  59194-4 0  9998,2 43574  86.3947 242.6105 0002119  94.8434 265.3003 14.34217749349655,14.34217749,0.0002119,LEO
43575,IRIDIUM 163,2018,100.4,860.0,+,86.39,Active,1,LEO,USA,USA,Commercial/Government,Communications,Falcon,1 43575U 18061G   25088.36849773  .00000736  00000+0  25582-3 0  9990,2 43575  86.3945 242.5481 0002115  91.0345 269.1093 14.34221028349629,14.34221028,0.0002115,LEO
43576,IRIDIUM 156,2018,100.4,860.0,+,86.39,Active,1,LEO,USA,USA,Commercial/Government,Communications,Falcon,1 43576U 18061H   25088.41289741  .00000095  00000+0  26712-4 0  9995,2 43576  86.3944 242.5363 0001759  88.5135 271.6262 14.34215642349620,14.34215642,0.0001759,LEO
43577,IRIDIUM 164,2018,100.4,860.0,+,86.39,Active,1,LEO,USA,USA,Commercial/Government,Communications,Falcon,1 43577U 18061J   25088.39386901  .00000089  00000+0  24695-4 0  9990,2 43577  86.3947 242.5774 0002005 101.0540 259.0882 14.34214875349665,14.34214875,0.0002005,LEO
